STARLINK-2224           
1 48573U 21041W   26068.52650530  .00004199  00000+0  15382-3 0  9997
2 48573  53.1574 127.6957 0001391  96.9661 263.1498 15.30200941265249
NUSHSAT1                
1 63211U 25052B   26068.64700493  .00023034  00000+0  74857-3 0  9997
2 63211  97.4095 325.7239 0005501  84.7512 275.4357 15.31903202 54882
