[{"OBJECT_NAME":"STARLINK-2224","OBJECT_ID":"2021-041W","EPOCH":"2026-03-09T12:38:10.057920","MEAN_MOTION":15.30200941,"ECCENTRICITY":0.0001391,"INCLINATION":53.1574,"RA_OF_ASC_NODE":127.6957,"ARG_OF_PERICENTER":96.9661,"MEAN_ANOMALY":263.1498,"EPHEMERIS_TYPE":0,"CLASSIFICATION_TYPE":"U","NORAD_CAT_ID":48573,"ELEMENT_SET_NO":999,"REV_AT_EPOCH":26524,"BSTAR":0.00015382,"MEAN_MOTION_DOT":4.199e-5,"MEAN_MOTION_DDOT":0},{"OBJECT_NAME":"NUSHSAT1","OBJECT_ID":"2025-052B","EPOCH":"2026-03-09T15:31:41.225952","MEAN_MOTION":15.31903202,"ECCENTRICITY":0.0005501,"INCLINATION":97.4095,"RA_OF_ASC_NODE":325.7239,"ARG_OF_PERICENTER":84.7512,"MEAN_ANOMALY":275.4357,"EPHEMERIS_TYPE":0,"CLASSIFICATION_TYPE":"U","NORAD_CAT_ID":63211,"ELEMENT_SET_NO":999,"REV_AT_EPOCH":5488,"BSTAR":0.00074857,"MEAN_MOTION_DOT":0.00023034,"MEAN_MOTION_DDOT":0}]
